start=new Date('2022-06-14T00:00:00.000Z').valueOf();
sats=[{"CENTER_NAME":"EARTH","MEAN_MOTION":"15.73208191","GP_ID":"206062373","MEAN_ELEMENT_THEORY":"SGP4","BSTAR":"0.00029861000000","ARG_OF_PERICENTER":"39.9118","REV_AT_EPOCH":"130","MEAN_ANOMALY":"346.5186","PERIAPSIS":"348.642","CLASSIFICATION_TYPE":"U","ECCENTRICITY":"0.00016280","APOAPSIS":"350.832","OBJECT_NAME":"STARLINK-3914","TLE_LINE1":"1 52490U 22049AR  22164.58334491  .00041510  00000-0  29861-3 0  9999","RCS_SIZE":"MEDIUM","EPOCH":"2022-06-13T14:00:01.000224","RA_OF_ASC_NODE":"77.3404","ELEMENT_SET_NO":"999","TLE_LINE2":"2 52490  53.2186  77.3404 0001628  39.9118 346.5186 15.73208191  1304","OBJECT_TYPE":"PAYLOAD","COUNTRY_CODE":"US","EPHEMERIS_TYPE":"0","SITE":"AFETR","DECAY_DATE":null,"REF_FRAME":"TEME","LAUNCH_DATE":"2022-05-06","PERIOD":"91.533","MEAN_MOTION_DOT":"0.00041510","TIME_SYSTEM":"UTC","SEMIMAJOR_AXIS":"6727.872","FILE":"3494620","NORAD_CAT_ID":"52490","MEAN_MOTION_DDOT":"0.0000000000000","INCLINATION":"53.2186","OBJECT_ID":"2022-049AR"},{"MEAN_MOTION_DDOT":"0.0000000000000","OBJECT_ID":"2022-049AS","INCLINATION":"53.2168","SEMIMAJOR_AXIS":"6727.881","FILE":"3494620","NORAD_CAT_ID":"52491","MEAN_MOTION_DOT":"0.00037269","TIME_SYSTEM":"UTC","PERIOD":"91.533","LAUNCH_DATE":"2022-05-06","REF_FRAME":"TEME","DECAY_DATE":null,"EPHEMERIS_TYPE":"0","SITE":"AFETR","COUNTRY_CODE":"US","ELEMENT_SET_NO":"999","TLE_LINE2":"2 52491  53.2168  77.3427 0001921  35.3872 349.1698 15.73205112  1300","OBJECT_TYPE":"PAYLOAD","RA_OF_ASC_NODE":"77.3427","TLE_LINE1":"1 52491U 22049AS  22164.58334491  .00037269  00000-0  26872-3 0  9995","RCS_SIZE":"LARGE","EPOCH":"2022-06-13T14:00:01.000224","OBJECT_NAME":"STARLINK-3908","APOAPSIS":"351.038","ECCENTRICITY":"0.00019210","CLASSIFICATION_TYPE":"U","MEAN_ANOMALY":"349.1698","PERIAPSIS":"348.453","REV_AT_EPOCH":"130","ARG_OF_PERICENTER":"35.3872","BSTAR":"0.00026872000000","GP_ID":"206062930","MEAN_ELEMENT_THEORY":"SGP4","MEAN_MOTION":"15.73205112","CENTER_NAME":"EARTH"},{"EPHEMERIS_TYPE":"0","SITE":"AFETR","REF_FRAME":"TEME","DECAY_DATE":null,"ELEMENT_SET_NO":"999","OBJECT_TYPE":"PAYLOAD","TLE_LINE2":"2 52492  53.2181  77.3367 0001458  36.2562 351.4283 15.73148146  1309","COUNTRY_CODE":"US","SEMIMAJOR_AXIS":"6728.043","FILE":"3494620","NORAD_CAT_ID":"52492","MEAN_MOTION_DDOT":"0.0000000000000","OBJECT_ID":"2022-049AT","INCLINATION":"53.2181","LAUNCH_DATE":"2022-05-06","MEAN_MOTION_DOT":"0.00084783","TIME_SYSTEM":"UTC","PERIOD":"91.536","REV_AT_EPOCH":"130","ARG_OF_PERICENTER":"36.2562","MEAN_MOTION":"15.73148146","CENTER_NAME":"EARTH","BSTAR":"0.00060375000000","GP_ID":"206062823","MEAN_ELEMENT_THEORY":"SGP4","OBJECT_NAME":"STARLINK-3916","APOAPSIS":"350.889","RA_OF_ASC_NODE":"77.3367","RCS_SIZE":"MEDIUM","TLE_LINE1":"1 52492U 22049AT  22164.58334491  .00084783  00000-0  60375-3 0  9995","EPOCH":"2022-06-13T14:00:01.000224","MEAN_ANOMALY":"351.4283","PERIAPSIS":"348.927","ECCENTRICITY":"0.00014580","CLASSIFICATION_TYPE":"U"},{"COUNTRY_CODE":"US","ELEMENT_SET_NO":"999","OBJECT_TYPE":"PAYLOAD","TLE_LINE2":"2 52493  53.2172  75.6911 0001771  39.6760  75.0990 15.73271543  6230","REF_FRAME":"TEME","DECAY_DATE":null,"EPHEMERIS_TYPE":"0","SITE":"AFETR","MEAN_MOTION_DOT":"-0.00115199","TIME_SYSTEM":"UTC","PERIOD":"91.529","LAUNCH_DATE":"2022-05-06","MEAN_MOTION_DDOT":"0.0000000000000","OBJECT_ID":"2022-049AU","INCLINATION":"53.2172","SEMIMAJOR_AXIS":"6727.691","FILE":"3495252","NORAD_CAT_ID":"52493","BSTAR":"-0.00082506000000","GP_ID":"206076655","MEAN_ELEMENT_THEORY":"SGP4","MEAN_MOTION":"15.73271543","CENTER_NAME":"EARTH","REV_AT_EPOCH":"623","ARG_OF_PERICENTER":"39.6760","ECCENTRICITY":"0.00017710","CLASSIFICATION_TYPE":"U","PERIAPSIS":"348.365","MEAN_ANOMALY":"75.0990","RA_OF_ASC_NODE":"75.6911","TLE_LINE1":"1 52493U 22049AU  22164.91667824 -.00115199  00000-0 -82506-3 0  9990","RCS_SIZE":"MEDIUM","EPOCH":"2022-06-13T22:00:00.999936","OBJECT_NAME":"STARLINK-3883","APOAPSIS":"350.748"},{"CENTER_NAME":"EARTH","MEAN_MOTION":"15.73209416","MEAN_ELEMENT_THEORY":"SGP4","GP_ID":"206062717","BSTAR":"0.00009841700000","REV_AT_EPOCH":"130","ARG_OF_PERICENTER":"41.8309","MEAN_ANOMALY":"348.3760","PERIAPSIS":"348.650","CLASSIFICATION_TYPE":"U","ECCENTRICITY":"0.00016100","APOAPSIS":"350.817","OBJECT_NAME":"STARLINK-3857","TLE_LINE1":"1 52494U 22049AV  22164.58334491  .00013219  00000-0  98417-4 0  9992","RCS_SIZE":"MEDIUM","EPOCH":"2022-06-13T14:00:01.000224","RA_OF_ASC_NODE":"77.3309","ELEMENT_SET_NO":"999","OBJECT_TYPE":"PAYLOAD","TLE_LINE2":"2 52494  53.2181  77.3309 0001610  41.8309 348.3760 15.73209416  1301","COUNTRY_CODE":"US","EPHEMERIS_TYPE":"0","SITE":"AFETR","DECAY_DATE":null,"REF_FRAME":"TEME","LAUNCH_DATE":"2022-05-06","PERIOD":"91.533","MEAN_MOTION_DOT":"0.00013219","TIME_SYSTEM":"UTC","SEMIMAJOR_AXIS":"6727.868","NORAD_CAT_ID":"52494","FILE":"3494620","MEAN_MOTION_DDOT":"0.0000000000000","INCLINATION":"53.2181","OBJECT_ID":"2022-049AV"},{"RA_OF_ASC_NODE":"77.3387","EPOCH":"2022-06-13T14:00:01.000224","TLE_LINE1":"1 52495U 22049AW  22164.58334491  .00043688  00000-0  31389-3 0  9990","RCS_SIZE":"MEDIUM","OBJECT_NAME":"STARLINK-3905","APOAPSIS":"350.773","ECCENTRICITY":"0.00015650","CLASSIFICATION_TYPE":"U","PERIAPSIS":"348.668","MEAN_ANOMALY":"1.1805","REV_AT_EPOCH":"130","ARG_OF_PERICENTER":"25.8937","BSTAR":"0.00031389000000","GP_ID":"206063007","MEAN_ELEMENT_THEORY":"SGP4","MEAN_MOTION":"15.73213899","CENTER_NAME":"EARTH","INCLINATION":"53.2183","OBJECT_ID":"2022-049AW","MEAN_MOTION_DDOT":"0.0000000000000","NORAD_CAT_ID":"52495","FILE":"3494620","SEMIMAJOR_AXIS":"6727.856","TIME_SYSTEM":"UTC","MEAN_MOTION_DOT":"0.00043688","PERIOD":"91.532","LAUNCH_DATE":"2022-05-06","REF_FRAME":"TEME","DECAY_DATE":null,"SITE":"AFETR","EPHEMERIS_TYPE":"0","COUNTRY_CODE":"US","OBJECT_TYPE":"PAYLOAD","TLE_LINE2":"2 52495  53.2183  77.3387 0001565  25.8937   1.1805 15.73213899  1302","ELEMENT_SET_NO":"999"},{"CENTER_NAME":"EARTH","MEAN_MOTION":"15.73192617","GP_ID":"206062479","MEAN_ELEMENT_THEORY":"SGP4","BSTAR":"0.00043274000000","ARG_OF_PERICENTER":"81.1020","REV_AT_EPOCH":"130","PERIAPSIS":"349.036","MEAN_ANOMALY":"139.6480","CLASSIFICATION_TYPE":"U","ECCENTRICITY":"0.00011070","APOAPSIS":"350.526","OBJECT_NAME":"STARLINK-3871","EPOCH":"2022-06-13T14:00:01.000224","RCS_SIZE":"LARGE","TLE_LINE1":"1 52496U 22049AX  22164.58334491  .00060531  00000-0  43274-3 0  9993","RA_OF_ASC_NODE":"75.4487","TLE_LINE2":"2 52496  53.2178  75.4487 0001107  81.1020 139.6480 15.73192617  1307","OBJECT_TYPE":"PAYLOAD","ELEMENT_SET_NO":"999","COUNTRY_CODE":"US","SITE":"AFETR","EPHEMERIS_TYPE":"0","DECAY_DATE":null,"REF_FRAME":"TEME","LAUNCH_DATE":"2022-05-06","PERIOD":"91.534","TIME_SYSTEM":"UTC","MEAN_MOTION_DOT":"0.00060531","NORAD_CAT_ID":"52496","FILE":"3494620","SEMIMAJOR_AXIS":"6727.916","OBJECT_ID":"2022-049AX","INCLINATION":"53.2178","MEAN_MOTION_DDOT":"0.0000000000000"},{"LAUNCH_DATE":"2022-05-06","PERIOD":"91.534","TIME_SYSTEM":"UTC","MEAN_MOTION_DOT":"0.00073646","NORAD_CAT_ID":"52497","FILE":"3494620","SEMIMAJOR_AXIS":"6727.943","INCLINATION":"53.2178","OBJECT_ID":"2022-049AY","MEAN_MOTION_DDOT":"0.0000000000000","TLE_LINE2":"2 52497  53.2178  77.3352 0001580  38.2232 350.1229 15.73183159  1305","OBJECT_TYPE":"PAYLOAD","ELEMENT_SET_NO":"999","COUNTRY_CODE":"US","SITE":"AFETR","EPHEMERIS_TYPE":"0","DECAY_DATE":null,"REF_FRAME":"TEME","PERIAPSIS":"348.745","MEAN_ANOMALY":"350.1229","CLASSIFICATION_TYPE":"U","ECCENTRICITY":"0.00015800","APOAPSIS":"350.871","OBJECT_NAME":"STARLINK-3884","EPOCH":"2022-06-13T14:00:01.000224","TLE_LINE1":"1 52497U 22049AY  22164.58334491  .00073646  00000-0  52493-3 0  9998","RCS_SIZE":"MEDIUM","RA_OF_ASC_NODE":"77.3352","CENTER_NAME":"EARTH","MEAN_MOTION":"15.73183159","MEAN_ELEMENT_THEORY":"SGP4","GP_ID":"206062612","BSTAR":"0.00052493000000","ARG_OF_PERICENTER":"38.2232","REV_AT_EPOCH":"130"},{"ARG_OF_PERICENTER":"35.6858","REV_AT_EPOCH":"130","MEAN_MOTION":"15.73249978","CENTER_NAME":"EARTH","BSTAR":"-0.00029031000000","GP_ID":"206062374","MEAN_ELEMENT_THEORY":"SGP4","OBJECT_NAME":"STARLINK-3925","APOAPSIS":"350.683","RA_OF_ASC_NODE":"77.3302","EPOCH":"2022-06-13T14:00:01.000224","TLE_LINE1":"1 52498U 22049AZ  22164.58334491 -.00041252  00000-0 -29031-3 0  9991","RCS_SIZE":"MEDIUM","PERIAPSIS":"348.552","MEAN_ANOMALY":"355.1231","ECCENTRICITY":"0.00015840","CLASSIFICATION_TYPE":"U","SITE":"AFETR","EPHEMERIS_TYPE":"0","REF_FRAME":"TEME","DECAY_DATE":null,"TLE_LINE2":"2 52498  53.2183  77.3302 0001584  35.6858 355.1231 15.73249978  1306","OBJECT_TYPE":"PAYLOAD","ELEMENT_SET_NO":"999","COUNTRY_CODE":"US","NORAD_CAT_ID":"52498","FILE":"3494620","SEMIMAJOR_AXIS":"6727.753","INCLINATION":"53.2183","OBJECT_ID":"2022-049AZ","MEAN_MOTION_DDOT":"0.0000000000000","LAUNCH_DATE":"2022-05-06","TIME_SYSTEM":"UTC","MEAN_MOTION_DOT":"-0.00041252","PERIOD":"91.530"},{"ELEMENT_SET_NO":"999","OBJECT_TYPE":"PAYLOAD","TLE_LINE2":"2 52499  53.2181  77.3337 0001557  31.9244 357.0332 15.73191804  1308","COUNTRY_CODE":"US","EPHEMERIS_TYPE":"0","SITE":"AFETR","DECAY_DATE":null,"REF_FRAME":"TEME","LAUNCH_DATE":"2022-05-06","PERIOD":"91.534","MEAN_MOTION_DOT":"0.00044921","TIME_SYSTEM":"UTC","SEMIMAJOR_AXIS":"6727.919","FILE":"3494620","NORAD_CAT_ID":"52499","MEAN_MOTION_DDOT":"0.0000000000000","OBJECT_ID":"2022-049BA","INCLINATION":"53.2181","CENTER_NAME":"EARTH","MEAN_MOTION":"15.73191804","MEAN_ELEMENT_THEORY":"SGP4","GP_ID":"206062931","BSTAR":"0.00032288000000","REV_AT_EPOCH":"130","ARG_OF_PERICENTER":"31.9244","PERIAPSIS":"348.736","MEAN_ANOMALY":"357.0332","CLASSIFICATION_TYPE":"U","ECCENTRICITY":"0.00015570","APOAPSIS":"350.831","OBJECT_NAME":"STARLINK-3894","TLE_LINE1":"1 52499U 22049BA  22164.58334491  .00044921  00000-0  32288-3 0  9994","RCS_SIZE":"MEDIUM","EPOCH":"2022-06-13T14:00:01.000224","RA_OF_ASC_NODE":"77.3337"}];
